[{"OBJECT_NAME":"EYESAT A (AO-27)","OBJECT_ID":"1993-061C","EPOCH":"2024-01-23T03:18:19.759680","MEAN_MOTION":14.30414946,"ECCENTRICITY":0.0009138,"INCLINATION":98.8121,"RA_OF_ASC_NODE":74.2406,"ARG_OF_PERICENTER":140.9481,"MEAN_ANOMALY":219.2362,"EPHEMERIS_TYPE":0,"CLASSIFICATION_TYPE":"U","NORAD_CAT_ID":22825,"ELEMENT_SET_NO":999,"REV_AT_EPOCH":58173,"BSTAR":9.9164e-5,"MEAN_MOTION_DOT":2.12e-6,"MEAN_MOTION_DDOT":0},{"OBJECT_NAME":"ITAMSAT (IO-26)","OBJECT_ID":"1993-061D","EPOCH":"2024-01-23T02:02:08.956032","MEAN_MOTION":14.30787716,"ECCENTRICITY":0.0009787,"INCLINATION":98.8066,"RA_OF_ASC_NODE":74.0481,"ARG_OF_PERICENTER":127.6858,"MEAN_ANOMALY":232.5213,"EPHEMERIS_TYPE":0,"CLASSIFICATION_TYPE":"U","NORAD_CAT_ID":22826,"ELEMENT_SET_NO":999,"REV_AT_EPOCH":58200,"BSTAR":0.0001091,"MEAN_MOTION_DOT":2.4e-6,"MEAN_MOTION_DDOT":0},{"OBJECT_NAME":"USA 99 (MILSTAR-1 1)","OBJECT_ID":"1994-009A","EPOCH":"2024-01-23T00:30:27.827424","MEAN_MOTION":1.00270464,"ECCENTRICITY":0.0003569,"INCLINATION":16.2801,"RA_OF_ASC_NODE":36.9824,"ARG_OF_PERICENTER":266.3574,"MEAN_ANOMALY":96.1012,"EPHEMERIS_TYPE":0,"CLASSIFICATION_TYPE":"U","NORAD_CAT_ID":22988,"ELEMENT_SET_NO":999,"REV_AT_EPOCH":2418,"BSTAR":0,"MEAN_MOTION_DOT":-2.05e-6,"MEAN_MOTION_DDOT":0},{"OBJECT_NAME":"RADIO ROSTO (RS-15)","OBJECT_ID":"1994-085A","EPOCH":"2024-01-23T05:15:23.674464","MEAN_MOTION":11.27575507,"ECCENTRICITY":0.0154843,"INCLINATION":64.8166,"RA_OF_ASC_NODE":279.8313,"ARG_OF_PERICENTER":170.8851,"MEAN_ANOMALY":189.4939,"EPHEMERIS_TYPE":0,"CLASSIFICATION_TYPE":"U","NORAD_CAT_ID":23439,"ELEMENT_SET_NO":999,"REV_AT_EPOCH":19713,"BSTAR":0.00024487,"MEAN_MOTION_DOT":-3.4e-7,"MEAN_MOTION_DDOT":0},{"OBJECT_NAME":"UFO 4 (USA 108)","OBJECT_ID":"1995-003A","EPOCH":"2024-01-23T05:19:42.521952","MEAN_MOTION":1.00274979,"ECCENTRICITY":0.0001466,"INCLINATION":9.705,"RA_OF_ASC_NODE":15.9159,"ARG_OF_PERICENTER":239.4902,"MEAN_ANOMALY":118.872,"EPHEMERIS_TYPE":0,"CLASSIFICATION_TYPE":"U","NORAD_CAT_ID":23467,"ELEMENT_SET_NO":999,"REV_AT_EPOCH":10616,"BSTAR":0,"MEAN_MOTION_DOT":-2.4e-7,"MEAN_MOTION_DDOT":0},{"OBJECT_NAME":"AMSC 1","OBJECT_ID":"1995-019A","EPOCH":"2024-01-23T02:14:55.500288","MEAN_MOTION":1.00271807,"ECCENTRICITY":0.0006755,"INCLINATION":12.4925,"RA_OF_ASC_NODE":22.3416,"ARG_OF_PERICENTER":276.4128,"MEAN_ANOMALY":109.3912,"EPHEMERIS_TYPE":0,"CLASSIFICATION_TYPE":"U","NORAD_CAT_ID":23553,"ELEMENT_SET_NO":999,"REV_AT_EPOCH":10539,"BSTAR":0,"MEAN_MOTION_DOT":-9.8e-7,"MEAN_MOTION_DDOT":0},{"OBJECT_NAME":"TDRS 7","OBJECT_ID":"1995-035B","EPOCH":"2024-01-23T09:56:07.527264","MEAN_MOTION":1.00277521,"ECCENTRICITY":0.0023512,"INCLINATION":13.7422,"RA_OF_ASC_NODE":354.2596,"ARG_OF_PERICENTER":59.6637,"MEAN_ANOMALY":302.0881,"EPHEMERIS_TYPE":0,"CLASSIFICATION_TYPE":"U","NORAD_CAT_ID":23613,"ELEMENT_SET_NO":999,"REV_AT_EPOCH":10437,"BSTAR":0,"MEAN_MOTION_DOT":-2.02e-6,"MEAN_MOTION_DDOT":0},{"OBJECT_NAME":"USA 115 (MILSTAR-1 2)","OBJECT_ID":"1995-060A","EPOCH":"2024-01-23T02:04:30.152640","MEAN_MOTION":1.00272449,"ECCENTRICITY":0.0004403,"INCLINATION":13.746,"RA_OF_ASC_NODE":10.0701,"ARG_OF_PERICENTER":277.2525,"MEAN_ANOMALY":105.6693,"EPHEMERIS_TYPE":0,"CLASSIFICATION_TYPE":"U","NORAD_CAT_ID":23712,"ELEMENT_SET_NO":999,"REV_AT_EPOCH":2410,"BSTAR":0,"MEAN_MOTION_DOT":-2.2e-7,"MEAN_MOTION_DDOT":0},{"OBJECT_NAME":"POLAR","OBJECT_ID":"1996-013A","EPOCH":"2024-01-21T19:08:06.369216","MEAN_MOTION":1.29846966,"ECCENTRICITY":0.5812956,"INCLINATION":79.0185,"RA_OF_ASC_NODE":236.0424,"ARG_OF_PERICENTER":238.8073,"MEAN_ANOMALY":51.6843,"EPHEMERIS_TYPE":0,"CLASSIFICATION_TYPE":"U","NORAD_CAT_ID":23802,"ELEMENT_SET_NO":999,"REV_AT_EPOCH":13346,"BSTAR":0,"MEAN_MOTION_DOT":2.91e-6,"MEAN_MOTION_DDOT":0},{"OBJECT_NAME":"INMARSAT 3-F1","OBJECT_ID":"1996-020A","EPOCH":"2024-01-23T03:00:42.825888","MEAN_MOTION":0.99975449,"ECCENTRICITY":0.000455,"INCLINATION":8.7572,"RA_OF_ASC_NODE":54.0297,"ARG_OF_PERICENTER":227.2709,"MEAN_ANOMALY":320.3546,"EPHEMERIS_TYPE":0,"CLASSIFICATION_TYPE":"U","NORAD_CAT_ID":23839,"ELEMENT_SET_NO":999,"REV_AT_EPOCH":10149,"BSTAR":0,"MEAN_MOTION_DOT":-3.3e-7,"MEAN_MOTION_DDOT":0},{"OBJECT_NAME":"JAS-2 (FO-29)","OBJECT_ID":"1996-046B","EPOCH":"2024-01-23T11:00:26.594496","MEAN_MOTION":13.53170492,"ECCENTRICITY":0.034969,"INCLINATION":98.5635,"RA_OF_ASC_NODE":337.3333,"ARG_OF_PERICENTER":205.6272,"MEAN_ANOMALY":152.7171,"EPHEMERIS_TYPE":0,"CLASSIFICATION_TYPE":"U","NORAD_CAT_ID":24278,"ELEMENT_SET_NO":999,"REV_AT_EPOCH":35497,"BSTAR":4.4578e-5,"MEAN_MOTION_DOT":8.0e-8,"MEAN_MOTION_DDOT":0},{"OBJECT_NAME":"INMARSAT 3-F2","OBJECT_ID":"1996-053A","EPOCH":"2024-01-22T23:01:02.122176","MEAN_MOTION":0.9999606,"ECCENTRICITY":0.0003619,"INCLINATION":7.8505,"RA_OF_ASC_NODE":62.2487,"ARG_OF_PERICENTER":256.2909,"MEAN_ANOMALY":106.0636,"EPHEMERIS_TYPE":0,"CLASSIFICATION_TYPE":"U","NORAD_CAT_ID":24307,"ELEMENT_SET_NO":999,"REV_AT_EPOCH":10016,"BSTAR":0,"MEAN_MOTION_DOT":-2.86e-6,"MEAN_MOTION_DDOT":0},{"OBJECT_NAME":"INMARSAT 3-F3","OBJECT_ID":"1996-070A","EPOCH":"2024-01-23T05:37:54.663744","MEAN_MOTION":0.99996968,"ECCENTRICITY":0.0005867,"INCLINATION":8.4034,"RA_OF_ASC_NODE":57.4162,"ARG_OF_PERICENTER":231.2703,"MEAN_ANOMALY":120.3608,"EPHEMERIS_TYPE":0,"CLASSIFICATION_TYPE":"U","NORAD_CAT_ID":24674,"ELEMENT_SET_NO":999,"REV_AT_EPOCH":9914,"BSTAR":0,"MEAN_MOTION_DOT":1.06e-6,"MEAN_MOTION_DDOT":0},{"OBJECT_NAME":"GALAXY 25 (G-25)","OBJECT_ID":"1997-026A","EPOCH":"2024-01-23T06:16:49.691136","MEAN_MOTION":0.99094383,"ECCENTRICITY":0.0006733,"INCLINATION":5.1669,"RA_OF_ASC_NODE":77.6966,"ARG_OF_PERICENTER":274.2594,"MEAN_ANOMALY":263.5489,"EPHEMERIS_TYPE":0,"CLASSIFICATION_TYPE":"U","NORAD_CAT_ID":24812,"ELEMENT_SET_NO":999,"REV_AT_EPOCH":9753,"BSTAR":0,"MEAN_MOTION_DOT":4.0e-7,"MEAN_MOTION_DDOT":0},{"OBJECT_NAME":"NAVSTAR 43 (USA 132)","OBJECT_ID":"1997-035A","EPOCH":"2024-01-23T04:41:02.225760","MEAN_MOTION":2.00565221,"ECCENTRICITY":0.0075884,"INCLINATION":55.6261,"RA_OF_ASC_NODE":132.8398,"ARG_OF_PERICENTER":53.1948,"MEAN_ANOMALY":307.4744,"EPHEMERIS_TYPE":0,"CLASSIFICATION_TYPE":"U","NORAD_CAT_ID":24876,"ELEMENT_SET_NO":999,"REV_AT_EPOCH":19438,"BSTAR":0,"MEAN_MOTION_DOT":-4.5e-7,"MEAN_MOTION_DDOT":0},{"OBJECT_NAME":"INTELSAT 5 (IS-5)","OBJECT_ID":"1997-046A","EPOCH":"2024-01-22T20:34:26.001696","MEAN_MOTION":1.00272519,"ECCENTRICITY":0.0005322,"INCLINATION":8.4834,"RA_OF_ASC_NODE":56.6791,"ARG_OF_PERICENTER":209.307,"MEAN_ANOMALY":330.4587,"EPHEMERIS_TYPE":0,"CLASSIFICATION_TYPE":"U","NORAD_CAT_ID":24916,"ELEMENT_SET_NO":999,"REV_AT_EPOCH":9683,"BSTAR":0,"MEAN_MOTION_DOT":-6.8e-7,"MEAN_MOTION_DDOT":0},{"OBJECT_NAME":"FORTE","OBJECT_ID":"1997-047A","EPOCH":"2024-01-22T21:16:11.406432","MEAN_MOTION":14.26982475,"ECCENTRICITY":0.0020875,"INCLINATION":69.9529,"RA_OF_ASC_NODE":192.0346,"ARG_OF_PERICENTER":25.1462,"MEAN_ANOMALY":335.0671,"EPHEMERIS_TYPE":0,"CLASSIFICATION_TYPE":"U","NORAD_CAT_ID":24920,"ELEMENT_SET_NO":999,"REV_AT_EPOCH":37362,"BSTAR":0.00019597,"MEAN_MOTION_DOT":4.2e-6,"MEAN_MOTION_DDOT":0}]
