22825,EYESAT A (AO-27),1993,100.67,-1.0,P,98.81,Active,0,LEO,French Guiana,USA,Unknown,Unknown,Unknown,1 22825U 93061C   24023.13772870  .00000212  00000+0  99164-4 0  9991,2 22825  98.8121  74.2406 0009138 140.9481 219.2362 14.30414946581736,14.30414946,0.0009138,LEO
22826,ITAMSAT (IO-26),1993,100.64,-1.0,P,98.81,Active,0,LEO,French Guiana,Italy,Unknown,Unknown,Unknown,1 22826U 93061D   24023.08482588  .00000240  00000+0  10910-3 0  9992,2 22826  98.8066  74.0481 0009787 127.6858 232.5213 14.30787716582008,14.30787716,0.0009787,LEO
22988,USA 99 (MILSTAR-1 1),1994,1436.12,4536.0,+,16.28,Active,1,GSO,USA,USA,Military,Communications,Titan,1 22988U 94009A   24023.02115541 -.00000205  00000+0  00000+0 0  9997,2 22988  16.2801  36.9824 0003569 266.3574  96.1012  1.00270464 24185,1.00270464,0.0003569,GSO
23439,RADIO ROSTO (RS-15),1994,127.71,-1.0,P,64.82,Active,0,LEO,Kazakhstan,Russia/USSR,Unknown,Unknown,Rokot,1 23439U 94085A   24023.21902401 -.00000034  00000+0  24487-3 0  9992,2 23439  64.8166 279.8313 0154843 170.8851 189.4939 11.27575507197136,11.27575507,0.0154843,LEO
23467,UFO 4 (USA 108),1995,1436.05,3200.0,+,9.71,Active,1,GSO,USA,USA,Military,Communications,Atlas,1 23467U 95003A   24023.22201993 -.00000024  00000+0  00000+0 0  9993,2 23467   9.7050  15.9159 0001466 239.4902 118.8720  1.00274979106161,1.00274979,0.0001466,GSO
23553,AMSC 1,1995,1436.1,2850.0,+,12.49,Active,1,GSO,USA,USA,Commercial,Communications,Atlas,1 23553U 95019A   24023.09369792 -.00000098  00000+0  00000+0 0  9994,2 23553  12.4925  22.3416 0006755 276.4128 109.3912  1.00271807105393,1.00271807,0.0006755,GSO
23613,TDRS 7,1995,1436.01,3180.0,+,13.74,Active,1,GSO,USA,USA,Government,Communications,Space Shuttle STS,1 23613U 95035B   24023.41397601 -.00000202  00000+0  00000+0 0  9992,2 23613  13.7422 354.2596 0023512  59.6637 302.0881  1.00277521104371,1.00277521,0.0023512,GSO
23712,USA 115 (MILSTAR-1 2),1995,1436.09,-1.0,+,13.75,Active,0,GSO,USA,USA,Unknown,Unknown,Unknown,1 23712U 95060A   24023.08646010 -.00000022  00000+0  00000+0 0  9994,2 23712  13.7460  10.0701 0004403 277.2525 105.6693  1.00272449 24104,1.00272449,0.0004403,GSO
23802,POLAR,1996,1109.0,-1.0,P,79.02,Active,0,MEO,USA,USA,Unknown,Unknown,Unknown,1 23802U 96013A   24021.79729594  .00000291  00000+0  00000+0 0  9995,2 23802  79.0185 236.0424 5812956 238.8073  51.6843  1.29846966133460,1.29846966,0.5812956,MEO
23839,INMARSAT 3-F1,1996,1440.35,-1.0,+,8.76,Active,0,GSO,USA,INMARSAT,Unknown,Unknown,Unknown,1 23839U 96020A   24023.12549567 -.00000033  00000+0  00000+0 0  9997,2 23839   8.7572  54.0297 0004550 227.2709 320.3546  0.99975449101490,0.99975449,0.000455,GSO
24278,JAS-2 (FO-29),1996,106.42,-1.0,P,98.56,Active,0,LEO,Japan,Japan,Unknown,Unknown,Unknown,1 24278U 96046B   24023.45864114  .00000008  00000+0  44578-4 0  9991,2 24278  98.5635 337.3333 0349690 205.6272 152.7171 13.53170492354978,13.53170492,0.034969,LEO
24307,INMARSAT 3-F2,1996,1440.06,-1.0,+,7.85,Active,0,GSO,Kazakhstan,INMARSAT,Unknown,Unknown,Unknown,1 24307U 96053A   24022.95905234 -.00000286  00000+0  00000+0 0  9991,2 24307   7.8505  62.2487 0003619 256.2909 106.0636  0.99996060100162,0.9999606,0.0003619,GSO
24674,INMARSAT 3-F3,1996,1440.04,2074.0,+,8.4,Active,1,GSO,USA,INMARSAT,Commercial,Communications,Atlas,1 24674U 96070A   24023.23466046  .00000106  00000+0  00000+0 0  9992,2 24674   8.4034  57.4162 0005867 231.2703 120.3608  0.99996968 99141,0.99996968,0.0005867,GSO
24812,GALAXY 25 (G-25),1997,1453.16,3515.0,P,5.17,Active,1,GSO,Kazakhstan,USA,Commercial,Communications,Proton,1 24812U 97026A   24023.26168624  .00000040  00000+0  00000+0 0  9999,2 24812   5.1669  77.6966 0006733 274.2594 263.5489  0.99094383 97535,0.99094383,0.0006733,GSO
24876,NAVSTAR 43 (USA 132),1997,717.97,2217.0,+,55.63,Active,1,MEO,USA,USA,Commercial/Military,Navigation (Global or Regional Positioning),Delta,1 24876U 97035A   24023.19516465 -.00000045  00000+0  00000+0 0  9997,2 24876  55.6261 132.8398 0075884  53.1948 307.4744  2.00565221194387,2.00565221,0.0075884,MEO
24916,INTELSAT 5 (IS-5),1997,1436.09,2730.0,+,8.48,Active,1,GSO,Kazakhstan,USA,Commercial,Communications,Proton,1 24916U 97046A   24022.85724539 -.00000068  00000+0  00000+0 0  9994,2 24916   8.4834  56.6791 0005322 209.3070 330.4587  1.00272519 96831,1.00272519,0.0005322,GSO
24920,FORTE,1997,100.91,215.0,+,69.95,Active,1,LEO,Western Range Airspace,USA,Government,Earth Observation,Pegasus,1 24920U 97047A   24022.88624313  .00000420  00000+0  19597-3 0  9998,2 24920  69.9529 192.0346 0020875  25.1462 335.0671 14.26982475373620,14.26982475,0.0020875,LEO
